STARLINK-1721_new
1 16332C 20062H   21326.10866032  .00004436  00000-0  29713-3 0  3264
2 16332  53.0512 218.2505 0001922  71.7768  80.1165 15.06402779    12
STARLINK-1721_old
1 26332C 20062H   21325.18143722  .00009775  00000-0  65490-3 0  3257
2 26332  53.0519 222.4129 0001892  69.8128  90.9246 15.06390846    12
